ONEWEB-0492             
1 54114U 22138B   25216.70056825  .00000031  00000+0  45100-4 0  9997
2 54114  87.9234   7.8859 0001737  88.0492 272.0840 13.19726478135095
ONEWEB-0495             
1 54115U 22138C   25216.67843989  .00000135  00000+0  30456-3 0  9991
2 54115  87.9234   7.9020 0002324  80.0496 280.0899 13.19724699135070
ONEWEB-0497             
1 54116U 22138D   25216.69107960  .00000091  00000+0  19384-3 0  9994
2 54116  87.9240   7.8711 0001888  92.1158 268.0191 13.19724235135063
ONEWEB-0499             
1 54117U 22138E   25216.67372121  .00000094  00000+0  20305-3 0  9994
2 54117  87.9237   7.8933 0002195  96.9684 263.1698 13.19726267135070
ONEWEB-0500             
1 54118U 22138F   25216.75267940  .00000056  00000+0  10743-3 0  9999
2 54118  87.9241   7.8619 0001786  94.2458 265.8879 13.19726477135097
ONEWEB-0501             
1 54119U 22138G   25217.16179114  .00000002  00000+0 -28049-4 0  9992
2 54119  87.9242   7.7736 0002175  86.7080 273.4302 13.19725457135990
ONEWEB-0502             
1 54120U 22138H   25216.69267016  .00000048  00000+0  87574-4 0  9997
2 54120  87.9238   7.8503 0002116  92.0812 268.0563 13.19725685135080
ONEWEB-0503             
1 54121U 22138J   25216.75742027  .00000030  00000+0  41638-4 0  9997
2 54121  87.9238   7.8418 0002066 102.6860 257.4504 13.19725985135081
